<?xml version="1.0" encoding="UTF-8" standalone="no"?><gpx xmlns="http://www.topografix.com/GPX/1/1" xmlns:xsi="http://www.w3.org/2001/XMLSchema-instance" creator="Sports Tracker" version="1.1" xsi:schemaLocation="http://www.topografix.com/GPX/1/1 http://www.topografix.com/GPX/1/1/gpx.xsd"><metadata><name>Étape 1 : Le Grand-Bornand au Lac de Lessy</name><author><name>nicolasdero</name></author></metadata><wpt lat="45.941826" lon="6.427064"><name>Begin</name><desc>Auto-generated</desc><type>Begin</type></wpt><wpt lat="45.98983" lon="6.439703"><name>End</name><desc>Auto-generated</desc><type>End</type></wpt><rte><rtept lat="45.941826" lon="6.427064"><ele>930.2576</ele></rtept><rtept lat="45.941948" lon="6.426941"><ele>930.2576</ele></rtept><rtept lat="45.94209" lon="6.427212"><ele>930.2576</ele></rtept><rtept lat="45.942135" lon="6.427212"><ele>930.2576</ele></rtept><rtept lat="45.942295" lon="6.427538"><ele>930.2576</ele></rtept><rtept lat="45.942337" lon="6.427575"><ele>930.2576</ele></rtept><rtept lat="45.942383" lon="6.427577"><ele>930.2576</ele></rtept><rtept lat="45.942497" lon="6.427507"><ele>930.7443</ele></rtept><rtept lat="45.942513" lon="6.427441"><ele>931.5906</ele></rtept><rtept lat="45.942493" lon="6.42736"><ele>932.6389</ele></rtept><rtept lat="45.942764" lon="6.427197"><ele>937.80334</ele></rtept><rtept lat="45.94321" lon="6.427058"><ele>945.85175</ele></rtept><rtept lat="45.94357" lon="6.426999"><ele>952.277</ele></rtept><rtept lat="45.94386" lon="6.426898"><ele>957.488</ele></rtept><rtept lat="45.944" lon="6.426861"><ele>960.0505</ele></rtept><rtept lat="45.944027" lon="6.426812"><ele>960.7958</ele></rtept><rtept lat="45.944103" lon="6.426774"><ele>962.326</ele></rtept><rtept lat="45.944122" lon="6.426789"><ele>962.9114</ele></rtept><rtept lat="45.94414" lon="6.426769"><ele>963.56506</ele></rtept><rtept lat="45.944153" lon="6.426662"><ele>965.5134</ele></rtept><rtept lat="45.9442" lon="6.426716"><ele>967.07465</ele></rtept><rtept lat="45.94423" lon="6.426689"><ele>967.9496</ele></rtept><rtept lat="45.944244" lon="6.426717"><ele>968.58746</ele></rtept><rtept lat="45.944405" lon="6.426585"><ele>973.4423</ele></rtept><rtept lat="45.944523" lon="6.426445"><ele>977.35266</ele></rtept><rtept lat="45.944813" lon="6.426169"><ele>986.3995</ele></rtept><rtept lat="45.944843" lon="6.426074"><ele>988.28235</ele></rtept><rtept lat="45.945175" lon="6.425967"><ele>997.11237</ele></rtept><rtept lat="45.945248" lon="6.425936"><ele>999.13763</ele></rtept><rtept lat="45.945324" lon="6.425795"><ele>1002.34125</ele></rtept><rtept lat="45.9456" lon="6.425723"><ele>1009.5453</ele></rtept><rtept lat="45.9458" lon="6.425485"><ele>1015.92096</ele></rtept><rtept lat="45.945827" lon="6.425377"><ele>1017.9071</ele></rtept><rtept lat="45.945984" lon="6.425369"><ele>1021.6919</ele></rtept><rtept lat="45.94603" lon="6.425315"><ele>1023.15027</ele></rtept><rtept lat="45.946014" lon="6.425224"><ele>1024.742</ele></rtept><rtept lat="45.94597" lon="6.425166"><ele>1026.2817</ele></rtept><rtept lat="45.94601" lon="6.425015"><ele>1029.0778</ele></rtept><rtept lat="45.94605" lon="6.424976"><ele>1030.2244</ele></rtept><rtept lat="45.945972" lon="6.424799"><ele>1033.777</ele></rtept><rtept lat="45.945923" lon="6.42458"><ele>1037.7059</ele></rtept><rtept lat="45.945946" lon="6.424248"><ele>1043.397</ele></rtept><rtept lat="45.945923" lon="6.424166"><ele>1044.898</ele></rtept><rtept lat="45.945812" lon="6.424039"><ele>1048.3243</ele></rtept><rtept lat="45.945713" lon="6.423721"><ele>1054.2999</ele></rtept><rtept lat="45.945625" lon="6.423586"><ele>1057.5277</ele></rtept><rtept lat="45.945473" lon="6.423001"><ele>1068.2883</ele></rtept><rtept lat="45.945522" lon="6.422641"><ele>1074.624</ele></rtept><rtept lat="45.945465" lon="6.422546"><ele>1076.8059</ele></rtept><rtept lat="45.945393" lon="6.422252"><ele>1082.2106</ele></rtept><rtept lat="45.945652" lon="6.422342"><ele>1088.8722</ele></rtept><rtept lat="45.945793" lon="6.42246"><ele>1092.8998</ele></rtept><rtept lat="45.945873" lon="6.422495"><ele>1095.0465</ele></rtept><rtept lat="45.945988" lon="6.422473"><ele>1097.9655</ele></rtept><rtept lat="45.946384" lon="6.42249"><ele>1109.2816</ele></rtept><rtept lat="45.946754" lon="6.422692"><ele>1120.5325</ele></rtept><rtept lat="45.946777" lon="6.422632"><ele>1121.9072</ele></rtept><rtept lat="45.94671" lon="6.422306"><ele>1128.667</ele></rtept><rtept lat="45.946716" lon="6.422217"><ele>1130.4493</ele></rtept><rtept lat="45.94701" lon="6.422404"><ele>1139.5793</ele></rtept><rtept lat="45.94711" lon="6.422506"><ele>1143.0812</ele></rtept><rtept lat="45.947395" lon="6.422664"><ele>1151.5858</ele></rtept><rtept lat="45.94745" lon="6.422639"><ele>1152.9972</ele></rtept><rtept lat="45.947437" lon="6.42251"><ele>1155.3302</ele></rtept><rtept lat="45.947475" lon="6.422484"><ele>1156.4601</ele></rtept><rtept lat="45.947693" lon="6.422504"><ele>1162.0573</ele></rtept><rtept lat="45.94766" lon="6.422394"><ele>1164.2014</ele></rtept><rtept lat="45.947662" lon="6.422324"><ele>1165.4567</ele></rtept><rtept lat="45.947754" lon="6.422337"><ele>1167.785</ele></rtept><rtept lat="45.94806" lon="6.42222"><ele>1175.9104</ele></rtept><rtept lat="45.948193" lon="6.422229"><ele>1179.4148</ele></rtept><rtept lat="45.9484" lon="6.422303"><ele>1184.8303</ele></rtept><rtept lat="45.94854" lon="6.422294"><ele>1188.5148</ele></rtept><rtept lat="45.948612" lon="6.422396"><ele>1191.1346</ele></rtept><rtept lat="45.9486" lon="6.422613"><ele>1195.0352</ele></rtept><rtept lat="45.94863" lon="6.422677"><ele>1196.2725</ele></rtept><rtept lat="45.94885" lon="6.422362"><ele>1203.3375</ele></rtept><rtept lat="45.948887" lon="6.422219"><ele>1205.7496</ele></rtept><rtept lat="45.948933" lon="6.422328"><ele>1207.772</ele></rtept><rtept lat="45.948933" lon="6.422425"><ele>1209.3112</ele></rtept><rtept lat="45.949104" lon="6.422249"><ele>1214.1077</ele></rtept><rtept lat="45.949127" lon="6.422194"><ele>1215.1256</ele></rtept><rtept lat="45.949123" lon="6.422127"><ele>1216.1943</ele></rtept><rtept lat="45.94907" lon="6.422023"><ele>1218.2261</ele></rtept><rtept lat="45.94907" lon="6.421894"><ele>1220.272</ele></rtept><rtept lat="45.949158" lon="6.42193"><ele>1222.381</ele></rtept><rtept lat="45.949203" lon="6.421948"><ele>1223.4244</ele></rtept><rtept lat="45.9495" lon="6.421965"><ele>1230.2274</ele></rtept><rtept lat="45.949528" lon="6.422183"><ele>1233.7316</ele></rtept><rtept lat="45.94956" lon="6.422233"><ele>1234.825</ele></rtept><rtept lat="45.949615" lon="6.422239"><ele>1236.1515</ele></rtept><rtept lat="45.94978" lon="6.421953"><ele>1240.2157</ele></rtept><rtept lat="45.949997" lon="6.421406"><ele>1247.1805</ele></rtept><rtept lat="45.95015" lon="6.421143"><ele>1250.96</ele></rtept><rtept lat="45.950203" lon="6.42114"><ele>1251.7692</ele></rtept><rtept lat="45.950237" lon="6.421183"><ele>1252.4988</ele></rtept><rtept lat="45.950253" lon="6.421277"><ele>1253.5693</ele></rtept><rtept lat="45.950226" lon="6.421854"><ele>1259.9431</ele></rtept><rtept lat="45.950047" lon="6.422275"><ele>1265.3234</ele></rtept><rtept lat="45.95006" lon="6.422632"><ele>1268.9292</ele></rtept><rtept lat="45.950256" lon="6.423428"><ele>1277.4353</ele></rtept><rtept lat="45.95022" lon="6.423819"><ele>1281.4187</ele></rtept><rtept lat="45.950245" lon="6.423935"><ele>1282.657</ele></rtept><rtept lat="45.95033" lon="6.423957"><ele>1283.8811</ele></rtept><rtept lat="45.950485" lon="6.423928"><ele>1286.1769</ele></rtept><rtept lat="45.950584" lon="6.423857"><ele>1287.7815</ele></rtept><rtept lat="45.950645" lon="6.423592"><ele>1290.6011</ele></rtept><rtept lat="45.951157" lon="6.424078"><ele>1302.3666</ele></rtept><rtept lat="45.95142" lon="6.424265"><ele>1307.9696</ele></rtept><rtept lat="45.951584" lon="6.424218"><ele>1311.2306</ele></rtept><rtept lat="45.95163" lon="6.424192"><ele>1312.1832</ele></rtept><rtept lat="45.951653" lon="6.424127"><ele>1313.152</ele></rtept><rtept lat="45.951477" lon="6.423789"><ele>1318.7994</ele></rtept><rtept lat="45.95144" lon="6.423528"><ele>1322.377</ele></rtept><rtept lat="45.95152" lon="6.422704"><ele>1335.3116</ele></rtept><rtept lat="45.95154" lon="6.422638"><ele>1336.5195</ele></rtept><rtept lat="45.951588" lon="6.422588"><ele>1337.8953</ele></rtept><rtept lat="45.951637" lon="6.422609"><ele>1339.0759</ele></rtept><rtept lat="45.95173" lon="6.422726"><ele>1341.966</ele></rtept><rtept lat="45.951855" lon="6.422722"><ele>1344.9318</ele></rtept><rtept lat="45.951996" lon="6.422606"><ele>1348.7544</ele></rtept><rtept lat="45.952183" lon="6.422572"><ele>1353.1901</ele></rtept><rtept lat="45.952286" lon="6.422658"><ele>1355.9928</ele></rtept><rtept lat="45.95256" lon="6.422695"><ele>1362.516</ele></rtept><rtept lat="45.952858" lon="6.422836"><ele>1369.5579</ele></rtept><rtept lat="45.953037" lon="6.422957"><ele>1373.484</ele></rtept><rtept lat="45.95313" lon="6.423146"><ele>1376.6423</ele></rtept><rtept lat="45.953186" lon="6.423168"><ele>1377.8085</ele></rtept><rtept lat="45.953438" lon="6.423556"><ele>1385.076</ele></rtept><rtept lat="45.95351" lon="6.423441"><ele>1387.2021</ele></rtept><rtept lat="45.95351" lon="6.423045"><ele>1392.6427</ele></rtept><rtept lat="45.953724" lon="6.422444"><ele>1401.9012</ele></rtept><rtept lat="45.953888" lon="6.422299"><ele>1405.3285</ele></rtept><rtept lat="45.95411" lon="6.422326"><ele>1408.9781</ele></rtept><rtept lat="45.954494" lon="6.422594"><ele>1416.0776</ele></rtept><rtept lat="45.954636" lon="6.422846"><ele>1419.7639</ele></rtept><rtept lat="45.95479" lon="6.422929"><ele>1422.4668</ele></rtept><rtept lat="45.95531" lon="6.422744"><ele>1431.369</ele></rtept><rtept lat="45.955452" lon="6.422738"><ele>1433.6807</ele></rtept><rtept lat="45.955563" lon="6.422825"><ele>1435.6702</ele></rtept><rtept lat="45.95583" lon="6.422702"><ele>1440.0225</ele></rtept><rtept lat="45.95617" lon="6.422449"><ele>1446.0195</ele></rtept><rtept lat="45.956493" lon="6.422257"><ele>1451.4677</ele></rtept><rtept lat="45.95655" lon="6.422113"><ele>1453.2919</ele></rtept><rtept lat="45.956707" lon="6.422203"><ele>1455.9191</ele></rtept><rtept lat="45.956833" lon="6.422136"><ele>1458.004</ele></rtept><rtept lat="45.95688" lon="6.421703"><ele>1462.2029</ele></rtept><rtept lat="45.95699" lon="6.421433"><ele>1464.4073</ele></rtept><rtept lat="45.956993" lon="6.421114"><ele>1466.6605</ele></rtept><rtept lat="45.957035" lon="6.420857"><ele>1468.5199</ele></rtept><rtept lat="45.956985" lon="6.420632"><ele>1470.1909</ele></rtept><rtept lat="45.957" lon="6.420445"><ele>1471.5225</ele></rtept><rtept lat="45.95714" lon="6.420186"><ele>1473.8389</ele></rtept><rtept lat="45.95727" lon="6.419762"><ele>1477.1149</ele></rtept><rtept lat="45.957386" lon="6.419704"><ele>1478.3334</ele></rtept><rtept lat="45.957466" lon="6.419602"><ele>1479.4191</ele></rtept><rtept lat="45.957397" lon="6.419403"><ele>1479.9027</ele></rtept><rtept lat="45.957317" lon="6.419283"><ele>1480.2708</ele></rtept><rtept lat="45.957317" lon="6.419214"><ele>1480.4209</ele></rtept><rtept lat="45.957733" lon="6.41885"><ele>1481.941</ele></rtept><rtept lat="45.95812" lon="6.41896"><ele>1483.1747</ele></rtept><rtept lat="45.958244" lon="6.419055"><ele>1483.6113</ele></rtept><rtept lat="45.958572" lon="6.419551"><ele>1485.1893</ele></rtept><rtept lat="45.958706" lon="6.419675"><ele>1486.4749</ele></rtept><rtept lat="45.958984" lon="6.41969"><ele>1488.7313</ele></rtept><rtept lat="45.959034" lon="6.41963"><ele>1489.2594</ele></rtept><rtept lat="45.95918" lon="6.419654"><ele>1490.4352</ele></rtept><rtept lat="45.959198" lon="6.419459"><ele>1491.5466</ele></rtept><rtept lat="45.95928" lon="6.419248"><ele>1492.9095</ele></rtept><rtept lat="45.959347" lon="6.418959"><ele>1494.6273</ele></rtept><rtept lat="45.95944" lon="6.418904"><ele>1495.4354</ele></rtept><rtept lat="45.959545" lon="6.418891"><ele>1496.2982</ele></rtept><rtept lat="45.95987" lon="6.418539"><ele>1499.5914</ele></rtept><rtept lat="45.960087" lon="6.418365"><ele>1501.1196</ele></rtept><rtept lat="45.96026" lon="6.418379"><ele>1502.1614</ele></rtept><rtept lat="45.96049" lon="6.418281"><ele>1503.6438</ele></rtept><rtept lat="45.96077" lon="6.418346"><ele>1505.3448</ele></rtept><rtept lat="45.96085" lon="6.418245"><ele>1506.0015</ele></rtept><rtept lat="45.960964" lon="6.418292"><ele>1506.7286</ele></rtept><rtept lat="45.961067" lon="6.418594"><ele>1508.1482</ele></rtept><rtept lat="45.961212" lon="6.418722"><ele>1509.1881</ele></rtept><rtept lat="45.961414" lon="6.419173"><ele>1509.3136</ele></rtept><rtept lat="45.96157" lon="6.419405"><ele>1507.3466</ele></rtept><rtept lat="45.961643" lon="6.419627"><ele>1505.8462</ele></rtept><rtept lat="45.96233" lon="6.420974"><ele>1495.6702</ele></rtept><rtept lat="45.96285" lon="6.421514"><ele>1488.247</ele></rtept><rtept lat="45.962982" lon="6.4217"><ele>1486.0079</ele></rtept><rtept lat="45.963" lon="6.421786"><ele>1485.244</ele></rtept><rtept lat="45.962986" lon="6.422017"><ele>1483.2909</ele></rtept><rtept lat="45.963013" lon="6.422172"><ele>1481.9532</ele></rtept><rtept lat="45.96349" lon="6.422864"><ele>1473.7273</ele></rtept><rtept lat="45.963573" lon="6.422953"><ele>1472.4926</ele></rtept><rtept lat="45.963688" lon="6.423004"><ele>1471.0616</ele></rtept><rtept lat="45.96374" lon="6.423062"><ele>1470.2699</ele></rtept><rtept lat="45.96382" lon="6.423039"><ele>1469.2648</ele></rtept><rtept lat="45.963993" lon="6.423097"><ele>1467.1874</ele></rtept><rtept lat="45.964108" lon="6.42318"><ele>1465.6575</ele></rtept><rtept lat="45.964737" lon="6.42305"><ele>1458.1132</ele></rtept><rtept lat="45.965" lon="6.423104"><ele>1454.9308</ele></rtept><rtept lat="45.965034" lon="6.423126"><ele>1454.4874</ele></rtept><rtept lat="45.96505" lon="6.423468"><ele>1451.6559</ele></rtept><rtept lat="45.965122" lon="6.423465"><ele>1451.3323</ele></rtept><rtept lat="45.965515" lon="6.423171"><ele>1449.4443</ele></rtept><rtept lat="45.965645" lon="6.423168"><ele>1448.905</ele></rtept><rtept lat="45.96591" lon="6.423333"><ele>1447.6598</ele></rtept><rtept lat="45.96603" lon="6.423424"><ele>1447.0876</ele></rtept><rtept lat="45.966198" lon="6.423553"><ele>1446.2867</ele></rtept><rtept lat="45.966316" lon="6.423482"><ele>1445.7438</ele></rtept><rtept lat="45.96636" lon="6.423472"><ele>1445.563</ele></rtept><rtept lat="45.966404" lon="6.423506"><ele>1445.3397</ele></rtept><rtept lat="45.966507" lon="6.423578"><ele>1444.8612</ele></rtept><rtept lat="45.96657" lon="6.423674"><ele>1444.4598</ele></rtept><rtept lat="45.966805" lon="6.423806"><ele>1444.4999</ele></rtept><rtept lat="45.966988" lon="6.423845"><ele>1445.1858</ele></rtept><rtept lat="45.967216" lon="6.423592"><ele>1446.2563</ele></rtept><rtept lat="45.967323" lon="6.423573"><ele>1446.643</ele></rtept><rtept lat="45.967407" lon="6.423638"><ele>1446.9979</ele></rtept><rtept lat="45.967552" lon="6.424125"><ele>1448.356</ele></rtept><rtept lat="45.967587" lon="6.42436"><ele>1448.9712</ele></rtept><rtept lat="45.967674" lon="6.424703"><ele>1449.9071</ele></rtept><rtept lat="45.967865" lon="6.425277"><ele>1453.6216</ele></rtept><rtept lat="45.967976" lon="6.425861"><ele>1458.6998</ele></rtept><rtept lat="45.96823" lon="6.42619"><ele>1462.8744</ele></rtept><rtept lat="45.968323" lon="6.426235"><ele>1464.0143</ele></rtept><rtept lat="45.968277" lon="6.426145"><ele>1464.9453</ele></rtept><rtept lat="45.96825" lon="6.425861"><ele>1467.3527</ele></rtept><rtept lat="45.968185" lon="6.425635"><ele>1469.4114</ele></rtept><rtept lat="45.968174" lon="6.425372"><ele>1471.624</ele></rtept><rtept lat="45.96808" lon="6.425047"><ele>1476.874</ele></rtept><rtept lat="45.968098" lon="6.424963"><ele>1478.3942</ele></rtept><rtept lat="45.968212" lon="6.424751"><ele>1482.9738</ele></rtept><rtept lat="45.968346" lon="6.42491"><ele>1487.1918</ele></rtept><rtept lat="45.968258" lon="6.42461"><ele>1492.7274</ele></rtept><rtept lat="45.96834" lon="6.424615"><ele>1494.7139</ele></rtept><rtept lat="45.968327" lon="6.424504"><ele>1496.6395</ele></rtept><rtept lat="45.968437" lon="6.424373"><ele>1500.176</ele></rtept><rtept lat="45.968433" lon="6.424217"><ele>1502.8331</ele></rtept><rtept lat="45.968384" lon="6.424066"><ele>1505.692</ele></rtept><rtept lat="45.968395" lon="6.424043"><ele>1506.1969</ele></rtept><rtept lat="45.96872" lon="6.424201"><ele>1514.5092</ele></rtept><rtept lat="45.968693" lon="6.424027"><ele>1517.8512</ele></rtept><rtept lat="45.96864" lon="6.423933"><ele>1520.512</ele></rtept><rtept lat="45.96865" lon="6.423792"><ele>1523.622</ele></rtept><rtept lat="45.96856" lon="6.423544"><ele>1529.7576</ele></rtept><rtept lat="45.968594" lon="6.423494"><ele>1531.3175</ele></rtept><rtept lat="45.96856" lon="6.423305"><ele>1535.6173</ele></rtept><rtept lat="45.968483" lon="6.423303"><ele>1538.0847</ele></rtept><rtept lat="45.96831" lon="6.423069"><ele>1545.5487</ele></rtept><rtept lat="45.968254" lon="6.422914"><ele>1549.4036</ele></rtept><rtept lat="45.968212" lon="6.422865"><ele>1551.1139</ele></rtept><rtept lat="45.968624" lon="6.422653"><ele>1564.9231</ele></rtept><rtept lat="45.96885" lon="6.422626"><ele>1572.0957</ele></rtept><rtept lat="45.968876" lon="6.422541"><ele>1574.1343</ele></rtept><rtept lat="45.969086" lon="6.422454"><ele>1580.9448</ele></rtept><rtept lat="45.969143" lon="6.422491"><ele>1582.8568</ele></rtept><rtept lat="45.969154" lon="6.422411"><ele>1584.6099</ele></rtept><rtept lat="45.96912" lon="6.422203"><ele>1589.218</ele></rtept><rtept lat="45.969273" lon="6.42216"><ele>1594.0247</ele></rtept><rtept lat="45.969296" lon="6.422159"><ele>1594.8007</ele></rtept><rtept lat="45.969322" lon="6.422481"><ele>1601.7881</ele></rtept><rtept lat="45.969406" lon="6.422602"><ele>1605.5204</ele></rtept><rtept lat="45.969517" lon="6.422629"><ele>1608.9829</ele></rtept><rtept lat="45.969597" lon="6.422611"><ele>1611.4954</ele></rtept><rtept lat="45.969795" lon="6.422779"><ele>1618.6813</ele></rtept><rtept lat="45.96999" lon="6.422727"><ele>1624.7129</ele></rtept><rtept lat="45.970078" lon="6.422783"><ele>1627.6985</ele></rtept><rtept lat="45.97014" lon="6.42278"><ele>1629.534</ele></rtept><rtept lat="45.97014" lon="6.422553"><ele>1633.3209</ele></rtept><rtept lat="45.97019" lon="6.422405"><ele>1636.0768</ele></rtept><rtept lat="45.970284" lon="6.422307"><ele>1638.8824</ele></rtept><rtept lat="45.970264" lon="6.422229"><ele>1640.2535</ele></rtept><rtept lat="45.970284" lon="6.422031"><ele>1643.5879</ele></rtept><rtept lat="45.970207" lon="6.421934"><ele>1646.0807</ele></rtept><rtept lat="45.970215" lon="6.421724"><ele>1649.5906</ele></rtept><rtept lat="45.970257" lon="6.42159"><ele>1652.0331</ele></rtept><rtept lat="45.97032" lon="6.421515"><ele>1654.0143</ele></rtept><rtept lat="45.97035" lon="6.4214"><ele>1656.0634</ele></rtept><rtept lat="45.970512" lon="6.421089"><ele>1662.5325</ele></rtept><rtept lat="45.97053" lon="6.420909"><ele>1665.5735</ele></rtept><rtept lat="45.970512" lon="6.420839"><ele>1666.827</ele></rtept><rtept lat="45.970543" lon="6.420802"><ele>1667.7938</ele></rtept><rtept lat="45.97055" lon="6.420712"><ele>1669.3021</ele></rtept><rtept lat="45.970608" lon="6.420552"><ele>1672.2928</ele></rtept><rtept lat="45.970596" lon="6.420448"><ele>1672.0316</ele></rtept><rtept lat="45.97068" lon="6.420135"><ele>1671.1954</ele></rtept><rtept lat="45.970726" lon="6.420044"><ele>1670.9166</ele></rtept><rtept lat="45.970875" lon="6.419265"><ele>1668.9017</ele></rtept><rtept lat="45.970856" lon="6.419021"><ele>1668.289</ele></rtept><rtept lat="45.97081" lon="6.418876"><ele>1667.8925</ele></rtept><rtept lat="45.970806" lon="6.418688"><ele>1667.4231</ele></rtept><rtept lat="45.97075" lon="6.418552"><ele>1667.0286</ele></rtept><rtept lat="45.97069" lon="6.418476"><ele>1666.7441</ele></rtept><rtept lat="45.970474" lon="6.418365"><ele>1665.917</ele></rtept><rtept lat="45.970375" lon="6.418129"><ele>1662.6165</ele></rtept><rtept lat="45.970375" lon="6.417996"><ele>1660.8566</ele></rtept><rtept lat="45.97051" lon="6.418021"><ele>1658.3037</ele></rtept><rtept lat="45.97061" lon="6.418119"><ele>1655.9851</ele></rtept><rtept lat="45.970654" lon="6.418119"><ele>1655.1666</ele></rtept><rtept lat="45.97076" lon="6.41804"><ele>1652.8436</ele></rtept><rtept lat="45.97083" lon="6.418057"><ele>1651.53</ele></rtept><rtept lat="45.970894" lon="6.418147"><ele>1649.8402</ele></rtept><rtept lat="45.971146" lon="6.418161"><ele>1645.0214</ele></rtept><rtept lat="45.971455" lon="6.418362"><ele>1638.6017</ele></rtept><rtept lat="45.971497" lon="6.418328"><ele>1637.6343</ele></rtept><rtept lat="45.97171" lon="6.418458"><ele>1633.2655</ele></rtept><rtept lat="45.97183" lon="6.418748"><ele>1628.6879</ele></rtept><rtept lat="45.972126" lon="6.419007"><ele>1621.8348</ele></rtept><rtept lat="45.972416" lon="6.419121"><ele>1615.9407</ele></rtept><rtept lat="45.972565" lon="6.419131"><ele>1612.9775</ele></rtept><rtept lat="45.972603" lon="6.419061"><ele>1611.7833</ele></rtept><rtept lat="45.97262" lon="6.419087"><ele>1611.2938</ele></rtept><rtept lat="45.972843" lon="6.419127"><ele>1606.8005</ele></rtept><rtept lat="45.972973" lon="6.419186"><ele>1604.1671</ele></rtept><rtept lat="45.973152" lon="6.41953"><ele>1598.2261</ele></rtept><rtept lat="45.973232" lon="6.419569"><ele>1596.5779</ele></rtept><rtept lat="45.973343" lon="6.419684"><ele>1592.7721</ele></rtept><rtept lat="45.97338" lon="6.419647"><ele>1591.4415</ele></rtept><rtept lat="45.973515" lon="6.41968"><ele>1587.4271</ele></rtept><rtept lat="45.97357" lon="6.419727"><ele>1585.5128</ele></rtept><rtept lat="45.973698" lon="6.419725"><ele>1581.8214</ele></rtept><rtept lat="45.973785" lon="6.419785"><ele>1578.8923</ele></rtept><rtept lat="45.97387" lon="6.419763"><ele>1576.4003</ele></rtept><rtept lat="45.974026" lon="6.4198"><ele>1571.7606</ele></rtept><rtept lat="45.9743" lon="6.419904"><ele>1563.2787</ele></rtept><rtept lat="45.97458" lon="6.419944"><ele>1555.0874</ele></rtept><rtept lat="45.974632" lon="6.419925"><ele>1553.3884</ele></rtept><rtept lat="45.974667" lon="6.419988"><ele>1551.7515</ele></rtept><rtept lat="45.97492" lon="6.420138"><ele>1543.7258</ele></rtept><rtept lat="45.975117" lon="6.420187"><ele>1539.6238</ele></rtept><rtept lat="45.975193" lon="6.420271"><ele>1537.7744</ele></rtept><rtept lat="45.975487" lon="6.420785"><ele>1528.9199</ele></rtept><rtept lat="45.97557" lon="6.420854"><ele>1527.0687</ele></rtept><rtept lat="45.97612" lon="6.420999"><ele>1516.4047</ele></rtept><rtept lat="45.976185" lon="6.421085"><ele>1514.7426</ele></rtept><rtept lat="45.976322" lon="6.421157"><ele>1511.9152</ele></rtept><rtept lat="45.976448" lon="6.42118"><ele>1509.4843</ele></rtept><rtept lat="45.976875" lon="6.421386"><ele>1508.278</ele></rtept><rtept lat="45.97699" lon="6.421308"><ele>1508.1844</ele></rtept><rtept lat="45.97711" lon="6.421307"><ele>1508.0967</ele></rtept><rtept lat="45.977222" lon="6.421322"><ele>1508.0138</ele></rtept><rtept lat="45.977448" lon="6.42144"><ele>1507.8387</ele></rtept><rtept lat="45.977753" lon="6.421696"><ele>1507.582</ele></rtept><rtept lat="45.977863" lon="6.421706"><ele>1507.5</ele></rtept><rtept lat="45.977966" lon="6.421768"><ele>1507.4171</ele></rtept><rtept lat="45.978123" lon="6.42172"><ele>1507.302</ele></rtept><rtept lat="45.978333" lon="6.421531"><ele>1510.5607</ele></rtept><rtept lat="45.97839" lon="6.421515"><ele>1511.5677</ele></rtept><rtept lat="45.978424" lon="6.42162"><ele>1513.003</ele></rtept><rtept lat="45.978355" lon="6.421783"><ele>1515.352</ele></rtept><rtept lat="45.978367" lon="6.421843"><ele>1516.1084</ele></rtept><rtept lat="45.97848" lon="6.421855"><ele>1518.1952</ele></rtept><rtept lat="45.978508" lon="6.42191"><ele>1518.9913</ele></rtept><rtept lat="45.9784" lon="6.422143"><ele>1522.3956</ele></rtept><rtept lat="45.978382" lon="6.422243"><ele>1523.6763</ele></rtept><rtept lat="45.978333" lon="6.422725"><ele>1529.6454</ele></rtept><rtept lat="45.978333" lon="6.423061"><ele>1533.7644</ele></rtept><rtept lat="45.97859" lon="6.423174"><ele>1538.4712</ele></rtept><rtept lat="45.9787" lon="6.423265"><ele>1541.8796</ele></rtept><rtept lat="45.978714" lon="6.423415"><ele>1544.9403</ele></rtept><rtept lat="45.978638" lon="6.423704"><ele>1551.189</ele></rtept><rtept lat="45.978645" lon="6.423785"><ele>1552.8527</ele></rtept><rtept lat="45.978897" lon="6.423892"><ele>1560.4985</ele></rtept><rtept lat="45.97892" lon="6.423968"><ele>1562.1525</ele></rtept><rtept lat="45.978897" lon="6.424075"><ele>1564.4174</ele></rtept><rtept lat="45.97891" lon="6.424117"><ele>1565.3472</ele></rtept><rtept lat="45.979015" lon="6.424197"><ele>1568.7789</ele></rtept><rtept lat="45.979046" lon="6.42427"><ele>1570.4939</ele></rtept><rtept lat="45.979164" lon="6.424727"><ele>1580.394</ele></rtept><rtept lat="45.979115" lon="6.424921"><ele>1584.5989</ele></rtept><rtept lat="45.979134" lon="6.425108"><ele>1588.4165</ele></rtept><rtept lat="45.9788" lon="6.425731"><ele>1603.454</ele></rtept><rtept lat="45.97854" lon="6.426137"><ele>1613.9148</ele></rtept><rtept lat="45.978542" lon="6.426184"><ele>1614.8141</ele></rtept><rtept lat="45.978962" lon="6.426333"><ele>1626.5083</ele></rtept><rtept lat="45.979584" lon="6.426472"><ele>1643.0365</ele></rtept><rtept lat="45.979645" lon="6.426564"><ele>1645.0408</ele></rtept><rtept lat="45.97965" lon="6.42665"><ele>1646.3889</ele></rtept><rtept lat="45.97955" lon="6.426807"><ele>1649.6895</ele></rtept><rtept lat="45.979546" lon="6.426867"><ele>1650.6376</ele></rtept><rtept lat="45.979713" lon="6.426962"><ele>1654.721</ele></rtept><rtept lat="45.979824" lon="6.426975"><ele>1657.205</ele></rtept><rtept lat="45.979893" lon="6.42695"><ele>1658.7845</ele></rtept><rtept lat="45.98002" lon="6.426831"><ele>1662.2332</ele></rtept><rtept lat="45.98025" lon="6.426796"><ele>1667.4609</ele></rtept><rtept lat="45.980392" lon="6.426584"><ele>1672.0349</ele></rtept><rtept lat="45.98044" lon="6.426568"><ele>1673.1438</ele></rtept><rtept lat="45.980476" lon="6.426564"><ele>1674.0013</ele></rtept><rtept lat="45.98057" lon="6.426676"><ele>1676.7306</ele></rtept><rtept lat="45.98064" lon="6.426693"><ele>1678.3062</ele></rtept><rtept lat="45.980717" lon="6.426689"><ele>1680.0403</ele></rtept><rtept lat="45.98088" lon="6.42661"><ele>1684.6171</ele></rtept><rtept lat="45.980946" lon="6.42662"><ele>1686.3787</ele></rtept><rtept lat="45.980976" lon="6.426637"><ele>1687.2864</ele></rtept><rtept lat="45.98097" lon="6.426696"><ele>1688.4203</ele></rtept><rtept lat="45.98091" lon="6.426841"><ele>1691.5747</ele></rtept><rtept lat="45.98111" lon="6.426843"><ele>1696.9656</ele></rtept><rtept lat="45.981186" lon="6.426981"><ele>1700.3308</ele></rtept><rtept lat="45.98139" lon="6.427"><ele>1705.8975</ele></rtept><rtept lat="45.981747" lon="6.427217"><ele>1716.5021</ele></rtept><rtept lat="45.9819" lon="6.427517"><ele>1723.5944</ele></rtept><rtept lat="45.982" lon="6.427631"><ele>1727.0212</ele></rtept><rtept lat="45.982086" lon="6.427678"><ele>1729.5898</ele></rtept><rtept lat="45.98225" lon="6.427671"><ele>1734.3727</ele></rtept><rtept lat="45.982567" lon="6.427975"><ele>1745.4933</ele></rtept><rtept lat="45.98266" lon="6.42812"><ele>1749.5537</ele></rtept><rtept lat="45.982765" lon="6.428422"><ele>1756.4341</ele></rtept><rtept lat="45.98284" lon="6.428507"><ele>1759.3027</ele></rtept><rtept lat="45.983013" lon="6.428474"><ele>1764.3906</ele></rtept><rtept lat="45.98313" lon="6.428631"><ele>1769.0597</ele></rtept><rtept lat="45.983322" lon="6.428639"><ele>1774.721</ele></rtept><rtept lat="45.98342" lon="6.428686"><ele>1777.7219</ele></rtept><rtept lat="45.98375" lon="6.428957"><ele>1787.0615</ele></rtept><rtept lat="45.98379" lon="6.429083"><ele>1789.0911</ele></rtept><rtept lat="45.983784" lon="6.429202"><ele>1790.8275</ele></rtept><rtept lat="45.98381" lon="6.429238"><ele>1791.5815</ele></rtept><rtept lat="45.983906" lon="6.429277"><ele>1793.6866</ele></rtept><rtept lat="45.984" lon="6.429357"><ele>1796.0052</ele></rtept><rtept lat="45.984203" lon="6.429359"><ele>1800.2065</ele></rtept><rtept lat="45.984283" lon="6.429417"><ele>1802.0787</ele></rtept><rtept lat="45.984383" lon="6.429422"><ele>1804.1702</ele></rtept><rtept lat="45.98448" lon="6.429487"><ele>1806.4066</ele></rtept><rtept lat="45.98463" lon="6.429649"><ele>1810.3431</ele></rtept><rtept lat="45.984722" lon="6.42965"><ele>1812.2452</ele></rtept><rtept lat="45.984917" lon="6.429541"><ele>1816.6371</ele></rtept><rtept lat="45.985214" lon="6.429539"><ele>1819.3502</ele></rtept><rtept lat="45.985416" lon="6.429812"><ele>1817.1538</ele></rtept><rtept lat="45.985474" lon="6.43002"><ele>1815.9194</ele></rtept><rtept lat="45.985832" lon="6.430642"><ele>1811.4812</ele></rtept><rtept lat="45.986187" lon="6.430927"><ele>1808.2522</ele></rtept><rtept lat="45.986473" lon="6.431459"><ele>1802.4612</ele></rtept><rtept lat="45.986744" lon="6.431887"><ele>1794.8187</ele></rtept><rtept lat="45.986885" lon="6.43234"><ele>1788.2784</ele></rtept><rtept lat="45.98695" lon="6.432525"><ele>1785.5383</ele></rtept><rtept lat="45.986977" lon="6.432851"><ele>1781.2125</ele></rtept><rtept lat="45.98706" lon="6.43323"><ele>1775.9823</ele></rtept><rtept lat="45.987247" lon="6.433839"><ele>1769.8076</ele></rtept><rtept lat="45.987354" lon="6.434056"><ele>1768.2147</ele></rtept><rtept lat="45.987576" lon="6.434331"><ele>1765.7135</ele></rtept><rtept lat="45.98775" lon="6.434635"><ele>1763.365</ele></rtept><rtept lat="45.987835" lon="6.434715"><ele>1762.5026</ele></rtept><rtept lat="45.988102" lon="6.434882"><ele>1760.0101</ele></rtept><rtept lat="45.988235" lon="6.434914"><ele>1758.8556</ele></rtept><rtept lat="45.988285" lon="6.434967"><ele>1758.324</ele></rtept><rtept lat="45.988323" lon="6.435138"><ele>1757.256</ele></rtept><rtept lat="45.988323" lon="6.435317"><ele>1756.4999</ele></rtept><rtept lat="45.988415" lon="6.435481"><ele>1756.3334</ele></rtept><rtept lat="45.98865" lon="6.436297"><ele>1755.6392</ele></rtept><rtept lat="45.9887" lon="6.436408"><ele>1755.5352</ele></rtept><rtept lat="45.988876" lon="6.436657"><ele>1755.2559</ele></rtept><rtept lat="45.98893" lon="6.436873"><ele>1755.075</ele></rtept><rtept lat="45.988888" lon="6.437002"><ele>1754.9624</ele></rtept><rtept lat="45.988895" lon="6.437158"><ele>1754.8395</ele></rtept><rtept lat="45.98895" lon="6.43744"><ele>1754.6102</ele></rtept><rtept lat="45.989098" lon="6.437911"><ele>1754.5112</ele></rtept><rtept lat="45.989098" lon="6.438037"><ele>1754.5112</ele></rtept><rtept lat="45.98905" lon="6.438243"><ele>1754.5112</ele></rtept><rtept lat="45.989075" lon="6.438509"><ele>1754.5112</ele></rtept><rtept lat="45.98914" lon="6.438613"><ele>1754.5112</ele></rtept><rtept lat="45.989277" lon="6.438684"><ele>1754.5112</ele></rtept><rtept lat="45.989395" lon="6.438826"><ele>1754.5112</ele></rtept><rtept lat="45.989525" lon="6.439137"><ele>1754.5112</ele></rtept><rtept lat="45.989647" lon="6.439559"><ele>1754.5112</ele></rtept><rtept lat="45.989723" lon="6.439632"><ele>1754.5112</ele></rtept><rtept lat="45.98983" lon="6.439703"><ele>1754.5112</ele></rtept></rte></gpx>