<?xml version="1.0" encoding="UTF-8" standalone="no"?><gpx xmlns="http://www.topografix.com/GPX/1/1" xmlns:xsi="http://www.w3.org/2001/XMLSchema-instance" creator="Sports Tracker" version="1.1" xsi:schemaLocation="http://www.topografix.com/GPX/1/1 http://www.topografix.com/GPX/1/1/gpx.xsd"><metadata><name>Étape 2 : Lac de Lessy à Bonneville</name><author><name>nicolasdero</name></author></metadata><wpt lat="45.98983" lon="6.439703"><name>Begin</name><desc>Auto-generated</desc><type>Begin</type></wpt><wpt lat="46.07772" lon="6.416789"><name>End</name><desc>Auto-generated</desc><type>End</type></wpt><rte><rtept lat="45.98983" lon="6.439703"><ele>1763.7089</ele></rtept><rtept lat="45.989925" lon="6.439766"><ele>1763.7089</ele></rtept><rtept lat="45.98999" lon="6.439835"><ele>1763.7089</ele></rtept><rtept lat="45.9901" lon="6.440025"><ele>1763.7089</ele></rtept><rtept lat="45.990414" lon="6.440216"><ele>1763.7089</ele></rtept><rtept lat="45.990658" lon="6.440516"><ele>1764.6713</ele></rtept><rtept lat="45.991554" lon="6.441488"><ele>1773.6362</ele></rtept><rtept lat="45.991707" lon="6.441547"><ele>1774.877</ele></rtept><rtept lat="45.991898" lon="6.441687"><ele>1776.6013</ele></rtept><rtept lat="45.99194" lon="6.441819"><ele>1777.3965</ele></rtept><rtept lat="45.99211" lon="6.442108"><ele>1781.2079</ele></rtept><rtept lat="45.99224" lon="6.44223"><ele>1783.865</ele></rtept><rtept lat="45.992455" lon="6.44217"><ele>1787.6725</ele></rtept><rtept lat="45.992638" lon="6.442308"><ele>1791.2635</ele></rtept><rtept lat="45.99297" lon="6.44249"><ele>1797.3639</ele></rtept><rtept lat="45.99327" lon="6.442754"><ele>1803.509</ele></rtept><rtept lat="45.993504" lon="6.44289"><ele>1807.8286</ele></rtept><rtept lat="45.99412" lon="6.44313"><ele>1818.1738</ele></rtept><rtept lat="45.994347" lon="6.443153"><ele>1821.739</ele></rtept><rtept lat="45.99447" lon="6.443092"><ele>1823.8286</ele></rtept><rtept lat="45.994637" lon="6.443072"><ele>1826.5009</ele></rtept><rtept lat="45.99465" lon="6.443118"><ele>1827.051</ele></rtept><rtept lat="45.99476" lon="6.443192"><ele>1828.9728</ele></rtept><rtept lat="45.9949" lon="6.443168"><ele>1831.2052</ele></rtept><rtept lat="45.995213" lon="6.443285"><ele>1836.3773</ele></rtept><rtept lat="45.995335" lon="6.443374"><ele>1838.7617</ele></rtept><rtept lat="45.995388" lon="6.443452"><ele>1840.2828</ele></rtept><rtept lat="45.995415" lon="6.443453"><ele>1840.8096</ele></rtept><rtept lat="45.99545" lon="6.443539"><ele>1842.2329</ele></rtept><rtept lat="45.995502" lon="6.443566"><ele>1843.3906</ele></rtept><rtept lat="45.995926" lon="6.44362"><ele>1851.9913</ele></rtept><rtept lat="45.99634" lon="6.443882"><ele>1861.1692</ele></rtept><rtept lat="45.99646" lon="6.443916"><ele>1863.6064</ele></rtept><rtept lat="45.996548" lon="6.44395"><ele>1865.4518</ele></rtept><rtept lat="45.99659" lon="6.443931"><ele>1866.3628</ele></rtept><rtept lat="45.996674" lon="6.444024"><ele>1868.493</ele></rtept><rtept lat="45.996887" lon="6.444052"><ele>1872.825</ele></rtept><rtept lat="45.997066" lon="6.444134"><ele>1876.9333</ele></rtept><rtept lat="45.99719" lon="6.444224"><ele>1880.0011</ele></rtept><rtept lat="45.997272" lon="6.444204"><ele>1881.9188</ele></rtept><rtept lat="45.997375" lon="6.444249"><ele>1884.3433</ele></rtept><rtept lat="45.997475" lon="6.444227"><ele>1886.5995</ele></rtept><rtept lat="45.997574" lon="6.444252"><ele>1888.8634</ele></rtept><rtept lat="45.99762" lon="6.4443"><ele>1890.125</ele></rtept><rtept lat="45.9977" lon="6.444323"><ele>1891.9845</ele></rtept><rtept lat="45.99785" lon="6.444478"><ele>1896.0887</ele></rtept><rtept lat="45.997883" lon="6.444483"><ele>1896.9258</ele></rtept><rtept lat="45.99801" lon="6.444669"><ele>1900.944</ele></rtept><rtept lat="45.99809" lon="6.444659"><ele>1902.7975</ele></rtept><rtept lat="45.99816" lon="6.444825"><ele>1905.8716</ele></rtept><rtept lat="45.99824" lon="6.444716"><ele>1908.3363</ele></rtept><rtept lat="45.998325" lon="6.444678"><ele>1910.3196</ele></rtept><rtept lat="45.99856" lon="6.444405"><ele>1915.6399</ele></rtept><rtept lat="45.998768" lon="6.444304"><ele>1917.3547</ele></rtept><rtept lat="45.998783" lon="6.444317"><ele>1917.5078</ele></rtept><rtept lat="45.998783" lon="6.444385"><ele>1917.8833</ele></rtept><rtept lat="45.99871" lon="6.444643"><ele>1919.4247</ele></rtept><rtept lat="45.998756" lon="6.444701"><ele>1919.9169</ele></rtept><rtept lat="45.99874" lon="6.444775"><ele>1920.3448</ele></rtept><rtept lat="45.99878" lon="6.444905"><ele>1921.1206</ele></rtept><rtept lat="45.998768" lon="6.444984"><ele>1921.5641</ele></rtept><rtept lat="45.998814" lon="6.44513"><ele>1922.4493</ele></rtept><rtept lat="45.99877" lon="6.44522"><ele>1923.057</ele></rtept><rtept lat="45.9988" lon="6.445434"><ele>1924.2582</ele></rtept><rtept lat="45.998886" lon="6.445623"><ele>1925.528</ele></rtept><rtept lat="45.99885" lon="6.445735"><ele>1926.2095</ele></rtept><rtept lat="45.998844" lon="6.445975"><ele>1927.5363</ele></rtept><rtept lat="45.998882" lon="6.446113"><ele>1928.359</ele></rtept><rtept lat="45.99898" lon="6.446202"><ele>1928.6188</ele></rtept><rtept lat="45.999035" lon="6.446489"><ele>1924.2163</ele></rtept><rtept lat="45.99907" lon="6.446555"><ele>1922.9839</ele></rtept><rtept lat="45.999138" lon="6.446671"><ele>1920.7172</ele></rtept><rtept lat="45.99919" lon="6.446918"><ele>1916.8737</ele></rtept><rtept lat="45.999226" lon="6.446977"><ele>1915.7357</ele></rtept><rtept lat="45.999336" lon="6.447008"><ele>1913.3617</ele></rtept><rtept lat="45.999718" lon="6.447236"><ele>1904.506</ele></rtept><rtept lat="46.000088" lon="6.447704"><ele>1893.982</ele></rtept><rtept lat="46.000336" lon="6.447926"><ele>1889.06</ele></rtept><rtept lat="46.000404" lon="6.447984"><ele>1888.0803</ele></rtept><rtept lat="46.000484" lon="6.447969"><ele>1887.136</ele></rtept><rtept lat="46.000603" lon="6.448068"><ele>1885.4658</ele></rtept><rtept lat="46.00097" lon="6.44826"><ele>1880.7911</ele></rtept><rtept lat="46.00104" lon="6.448343"><ele>1879.6936</ele></rtept><rtept lat="46.001076" lon="6.448336"><ele>1879.2695</ele></rtept><rtept lat="46.001198" lon="6.448316"><ele>1877.796</ele></rtept><rtept lat="46.00162" lon="6.448424"><ele>1872.6525</ele></rtept><rtept lat="46.002235" lon="6.4489"><ele>1868.03</ele></rtept><rtept lat="46.00233" lon="6.449001"><ele>1867.7144</ele></rtept><rtept lat="46.00269" lon="6.449077"><ele>1866.7509</ele></rtept><rtept lat="46.00301" lon="6.449294"><ele>1865.8141</ele></rtept><rtept lat="46.00324" lon="6.449202"><ele>1865.1802</ele></rtept><rtept lat="46.00359" lon="6.449133"><ele>1863.8265</ele></rtept><rtept lat="46.003757" lon="6.449146"><ele>1861.0475</ele></rtept><rtept lat="46.004078" lon="6.449108"><ele>1855.7108</ele></rtept><rtept lat="46.00416" lon="6.449082"><ele>1854.3076</ele></rtept><rtept lat="46.004387" lon="6.448869"><ele>1849.8596</ele></rtept><rtept lat="46.004475" lon="6.448845"><ele>1848.3964</ele></rtept><rtept lat="46.00456" lon="6.448844"><ele>1847.0253</ele></rtept><rtept lat="46.00466" lon="6.448911"><ele>1845.113</ele></rtept><rtept lat="46.004704" lon="6.448976"><ele>1844.0945</ele></rtept><rtept lat="46.004745" lon="6.448826"><ele>1842.2389</ele></rtept><rtept lat="46.004787" lon="6.448835"><ele>1841.5375</ele></rtept><rtept lat="46.004894" lon="6.448786"><ele>1839.6985</ele></rtept><rtept lat="46.004963" lon="6.448838"><ele>1838.412</ele></rtept><rtept lat="46.005104" lon="6.44884"><ele>1836.0828</ele></rtept><rtept lat="46.005253" lon="6.448692"><ele>1832.3162</ele></rtept><rtept lat="46.005257" lon="6.448633"><ele>1831.266</ele></rtept><rtept lat="46.005302" lon="6.448577"><ele>1829.7722</ele></rtept><rtept lat="46.005424" lon="6.44849"><ele>1826.2634</ele></rtept><rtept lat="46.00548" lon="6.448326"><ele>1823.0459</ele></rtept><rtept lat="46.005486" lon="6.44819"><ele>1820.6382</ele></rtept><rtept lat="46.005543" lon="6.447992"><ele>1816.8416</ele></rtept><rtept lat="46.00564" lon="6.447796"><ele>1812.6189</ele></rtept><rtept lat="46.005657" lon="6.447706"><ele>1810.9642</ele></rtept><rtept lat="46.005707" lon="6.447631"><ele>1809.1276</ele></rtept><rtept lat="46.005775" lon="6.447347"><ele>1803.8118</ele></rtept><rtept lat="46.005844" lon="6.447322"><ele>1802.002</ele></rtept><rtept lat="46.00604" lon="6.447342"><ele>1797.0293</ele></rtept><rtept lat="46.006115" lon="6.447298"><ele>1794.9457</ele></rtept><rtept lat="46.006153" lon="6.447438"><ele>1792.2992</ele></rtept><rtept lat="46.006218" lon="6.447513"><ele>1790.1803</ele></rtept><rtept lat="46.006245" lon="6.447491"><ele>1789.4132</ele></rtept><rtept lat="46.006268" lon="6.447384"><ele>1787.9333</ele></rtept><rtept lat="46.00645" lon="6.447393"><ele>1784.8438</ele></rtept><rtept lat="46.006443" lon="6.447317"><ele>1783.9547</ele></rtept><rtept lat="46.00632" lon="6.44704"><ele>1780.1726</ele></rtept><rtept lat="46.006294" lon="6.446875"><ele>1778.2179</ele></rtept><rtept lat="46.00641" lon="6.446851"><ele>1776.2888</ele></rtept><rtept lat="46.006454" lon="6.446849"><ele>1775.5414</ele></rtept><rtept lat="46.006546" lon="6.446977"><ele>1773.4054</ele></rtept><rtept lat="46.00665" lon="6.447232"><ele>1770.0122</ele></rtept><rtept lat="46.00683" lon="6.447545"><ele>1765.3372</ele></rtept><rtept lat="46.007046" lon="6.448009"><ele>1758.8972</ele></rtept><rtept lat="46.007435" lon="6.44848"><ele>1752.3679</ele></rtept><rtept lat="46.00754" lon="6.448541"><ele>1750.8971</ele></rtept><rtept lat="46.007824" lon="6.448576"><ele>1747.2373</ele></rtept><rtept lat="46.00807" lon="6.448688"><ele>1743.8884</ele></rtept><rtept lat="46.008133" lon="6.448669"><ele>1743.0591</ele></rtept><rtept lat="46.008392" lon="6.448533"><ele>1739.5312</ele></rtept><rtept lat="46.00858" lon="6.448353"><ele>1736.6007</ele></rtept><rtept lat="46.008682" lon="6.448176"><ele>1736.4537</ele></rtept><rtept lat="46.008827" lon="6.44798"><ele>1737.7228</ele></rtept><rtept lat="46.008915" lon="6.447954"><ele>1738.2753</ele></rtept><rtept lat="46.008923" lon="6.447992"><ele>1738.4547</ele></rtept><rtept lat="46.008858" lon="6.448886"><ele>1742.4258</ele></rtept><rtept lat="46.008923" lon="6.449406"><ele>1744.7611</ele></rtept><rtept lat="46.00895" lon="6.449421"><ele>1744.9332</ele></rtept><rtept lat="46.009026" lon="6.449381"><ele>1745.4597</ele></rtept><rtept lat="46.009216" lon="6.449166"><ele>1746.996</ele></rtept><rtept lat="46.0095" lon="6.448905"><ele>1746.6836</ele></rtept><rtept lat="46.009617" lon="6.448753"><ele>1746.3766</ele></rtept><rtept lat="46.010185" lon="6.448327"><ele>1745.1384</ele></rtept><rtept lat="46.010303" lon="6.448154"><ele>1744.8107</ele></rtept><rtept lat="46.010468" lon="6.448008"><ele>1744.4335</ele></rtept><rtept lat="46.010593" lon="6.447967"><ele>1744.1887</ele></rtept><rtept lat="46.011" lon="6.447946"><ele>1742.2372</ele></rtept><rtept lat="46.011856" lon="6.447808"><ele>1735.5011</ele></rtept><rtept lat="46.011993" lon="6.447807"><ele>1734.4181</ele></rtept><rtept lat="46.01245" lon="6.447947"><ele>1730.7362</ele></rtept><rtept lat="46.01326" lon="6.448426"><ele>1729.4219</ele></rtept><rtept lat="46.013878" lon="6.448895"><ele>1729.1995</ele></rtept><rtept lat="46.014324" lon="6.44946"><ele>1729.1996</ele></rtept><rtept lat="46.014442" lon="6.449471"><ele>1729.2601</ele></rtept><rtept lat="46.014698" lon="6.449404"><ele>1729.3944</ele></rtept><rtept lat="46.01519" lon="6.449351"><ele>1729.6477</ele></rtept><rtept lat="46.015446" lon="6.449301"><ele>1729.7781</ele></rtept><rtept lat="46.015545" lon="6.449237"><ele>1729.8346</ele></rtept><rtept lat="46.016174" lon="6.449107"><ele>1729.1774</ele></rtept><rtept lat="46.01671" lon="6.44905"><ele>1727.7096</ele></rtept><rtept lat="46.018745" lon="6.448989"><ele>1722.3917</ele></rtept><rtept lat="46.01946" lon="6.449063"><ele>1720.5941</ele></rtept><rtept lat="46.019485" lon="6.449133"><ele>1720.3817</ele></rtept><rtept lat="46.01955" lon="6.449062"><ele>1720.0597</ele></rtept><rtept lat="46.019634" lon="6.4487"><ele>1719.0138</ele></rtept><rtept lat="46.019928" lon="6.448011"><ele>1716.7958</ele></rtept><rtept lat="46.02017" lon="6.447316"><ele>1714.6722</ele></rtept><rtept lat="46.020275" lon="6.446933"><ele>1713.541</ele></rtept><rtept lat="46.020226" lon="6.446573"><ele>1712.7539</ele></rtept><rtept lat="46.020313" lon="6.446145"><ele>1711.814</ele></rtept><rtept lat="46.020313" lon="6.445988"><ele>1711.483</ele></rtept><rtept lat="46.02035" lon="6.445792"><ele>1711.0533</ele></rtept><rtept lat="46.02041" lon="6.444843"><ele>1709.0464</ele></rtept><rtept lat="46.020405" lon="6.444671"><ele>1708.6838</ele></rtept><rtept lat="46.020348" lon="6.444463"><ele>1708.2125</ele></rtept><rtept lat="46.0204" lon="6.44372"><ele>1707.1915</ele></rtept><rtept lat="46.020405" lon="6.443338"><ele>1706.7085</ele></rtept><rtept lat="46.02035" lon="6.442744"><ele>1705.9506</ele></rtept><rtept lat="46.020443" lon="6.442817"><ele>1705.7577</ele></rtept><rtept lat="46.020515" lon="6.442832"><ele>1705.6217</ele></rtept><rtept lat="46.02074" lon="6.442819"><ele>1705.2153</ele></rtept><rtept lat="46.02098" lon="6.442982"><ele>1704.6766</ele></rtept><rtept lat="46.021057" lon="6.442907"><ele>1703.9407</ele></rtept><rtept lat="46.02114" lon="6.442888"><ele>1703.2676</ele></rtept><rtept lat="46.02146" lon="6.443055"><ele>1700.5734</ele></rtept><rtept lat="46.021744" lon="6.44279"><ele>1697.9078</ele></rtept><rtept lat="46.0219" lon="6.442679"><ele>1696.5162</ele></rtept><rtept lat="46.022026" lon="6.442639"><ele>1695.5027</ele></rtept><rtept lat="46.022278" lon="6.442456"><ele>1693.2686</ele></rtept><rtept lat="46.02265" lon="6.442085"><ele>1689.4015</ele></rtept><rtept lat="46.023037" lon="6.44193"><ele>1685.0844</ele></rtept><rtept lat="46.02356" lon="6.441553"><ele>1678.8083</ele></rtept><rtept lat="46.02367" lon="6.441431"><ele>1677.3077</ele></rtept><rtept lat="46.023716" lon="6.441233"><ele>1675.7496</ele></rtept><rtept lat="46.023777" lon="6.441105"><ele>1674.5972</ele></rtept><rtept lat="46.023983" lon="6.440805"><ele>1671.4485</ele></rtept><rtept lat="46.024296" lon="6.440576"><ele>1662.7432</ele></rtept><rtept lat="46.024567" lon="6.440189"><ele>1652.9381</ele></rtept><rtept lat="46.024647" lon="6.440187"><ele>1650.8528</ele></rtept><rtept lat="46.024704" lon="6.44014"><ele>1649.1844</ele></rtept><rtept lat="46.02481" lon="6.439975"><ele>1645.1843</ele></rtept><rtept lat="46.024895" lon="6.439891"><ele>1642.5096</ele></rtept><rtept lat="46.025444" lon="6.43973"><ele>1628.0883</ele></rtept><rtept lat="46.025528" lon="6.439759"><ele>1625.8649</ele></rtept><rtept lat="46.025547" lon="6.439723"><ele>1625.0568</ele></rtept><rtept lat="46.025658" lon="6.439767"><ele>1620.7834</ele></rtept><rtept lat="46.025883" lon="6.440017"><ele>1610.0015</ele></rtept><rtept lat="46.025978" lon="6.439983"><ele>1606.3345</ele></rtept><rtept lat="46.026096" lon="6.440064"><ele>1601.4229</ele></rtept><rtept lat="46.02622" lon="6.440002"><ele>1596.4923</ele></rtept><rtept lat="46.02651" lon="6.43957"><ele>1580.7068</ele></rtept><rtept lat="46.026596" lon="6.43932"><ele>1573.3435</ele></rtept><rtept lat="46.026604" lon="6.439202"><ele>1570.2289</ele></rtept><rtept lat="46.026733" lon="6.439111"><ele>1564.7261</ele></rtept><rtept lat="46.02686" lon="6.438893"><ele>1557.2745</ele></rtept><rtept lat="46.02676" lon="6.438636"><ele>1550.6754</ele></rtept><rtept lat="46.02675" lon="6.438589"><ele>1549.5541</ele></rtept><rtept lat="46.026585" lon="6.438288"><ele>1541.1134</ele></rtept><rtept lat="46.0266" lon="6.438106"><ele>1537.0514</ele></rtept><rtept lat="46.02668" lon="6.437917"><ele>1532.1455</ele></rtept><rtept lat="46.0268" lon="6.437806"><ele>1527.6733</ele></rtept><rtept lat="46.026802" lon="6.437701"><ele>1525.3441</ele></rtept><rtept lat="46.026863" lon="6.437632"><ele>1522.8431</ele></rtept><rtept lat="46.026985" lon="6.437689"><ele>1518.749</ele></rtept><rtept lat="46.02704" lon="6.437581"><ele>1515.7993</ele></rtept><rtept lat="46.026966" lon="6.437477"><ele>1512.5216</ele></rtept><rtept lat="46.02702" lon="6.437349"><ele>1509.2349</ele></rtept><rtept lat="46.0271" lon="6.437211"><ele>1505.2092</ele></rtept><rtept lat="46.027477" lon="6.436951"><ele>1496.4335</ele></rtept><rtept lat="46.027573" lon="6.436792"><ele>1494.5737</ele></rtept><rtept lat="46.02762" lon="6.436578"><ele>1492.6128</ele></rtept><rtept lat="46.027626" lon="6.436404"><ele>1491.0797</ele></rtept><rtept lat="46.027546" lon="6.436151"><ele>1488.6371</ele></rtept><rtept lat="46.02736" lon="6.435951"><ele>1485.6896</ele></rtept><rtept lat="46.027317" lon="6.435198"><ele>1479.051</ele></rtept><rtept lat="46.02731" lon="6.434849"><ele>1477.0377</ele></rtept><rtept lat="46.02738" lon="6.434386"><ele>1479.4315</ele></rtept><rtept lat="46.027424" lon="6.434274"><ele>1480.0817</ele></rtept><rtept lat="46.027477" lon="6.433729"><ele>1482.8617</ele></rtept><rtept lat="46.027485" lon="6.432463"><ele>1489.2576</ele></rtept><rtept lat="46.027435" lon="6.431806"><ele>1491.5785</ele></rtept><rtept lat="46.027508" lon="6.431449"><ele>1492.7878</ele></rtept><rtept lat="46.027485" lon="6.431079"><ele>1493.9963</ele></rtept><rtept lat="46.02771" lon="6.430451"><ele>1496.291</ele></rtept><rtept lat="46.02805" lon="6.429663"><ele>1496.9785</ele></rtept><rtept lat="46.028606" lon="6.428959"><ele>1493.3448</ele></rtept><rtept lat="46.0287" lon="6.428986"><ele>1492.8859</ele></rtept><rtept lat="46.02885" lon="6.428881"><ele>1492.075</ele></rtept><rtept lat="46.02885" lon="6.42883"><ele>1491.9016</ele></rtept><rtept lat="46.028923" lon="6.428676"><ele>1491.2715</ele></rtept><rtept lat="46.029003" lon="6.428604"><ele>1490.8062</ele></rtept><rtept lat="46.029182" lon="6.42834"><ele>1489.5503</ele></rtept><rtept lat="46.02927" lon="6.428081"><ele>1489.5233</ele></rtept><rtept lat="46.029324" lon="6.427481"><ele>1489.9062</ele></rtept><rtept lat="46.02934" lon="6.426875"><ele>1490.2904</ele></rtept><rtept lat="46.029408" lon="6.42678"><ele>1490.3755</ele></rtept><rtept lat="46.02941" lon="6.426609"><ele>1490.4839</ele></rtept><rtept lat="46.02962" lon="6.426154"><ele>1490.8303</ele></rtept><rtept lat="46.029728" lon="6.425994"><ele>1490.9711</ele></rtept><rtept lat="46.029842" lon="6.425926"><ele>1491.441</ele></rtept><rtept lat="46.02983" lon="6.425855"><ele>1491.7314</ele></rtept><rtept lat="46.029854" lon="6.425753"><ele>1492.1594</ele></rtept><rtept lat="46.02992" lon="6.425683"><ele>1492.626</ele></rtept><rtept lat="46.030098" lon="6.425599"><ele>1493.7028</ele></rtept><rtept lat="46.03015" lon="6.425559"><ele>1494.057</ele></rtept><rtept lat="46.03022" lon="6.425447"><ele>1494.6547</ele></rtept><rtept lat="46.03031" lon="6.425182"><ele>1495.8295</ele></rtept><rtept lat="46.030537" lon="6.425021"><ele>1497.2738</ele></rtept><rtept lat="46.03062" lon="6.424913"><ele>1497.9297</ele></rtept><rtept lat="46.03071" lon="6.424324"><ele>1500.3319</ele></rtept><rtept lat="46.030785" lon="6.424145"><ele>1501.1722</ele></rtept><rtept lat="46.030907" lon="6.423984"><ele>1501.7878</ele></rtept><rtept lat="46.03113" lon="6.423753"><ele>1502.6676</ele></rtept><rtept lat="46.031437" lon="6.423464"><ele>1503.8423</ele></rtept><rtept lat="46.03147" lon="6.423406"><ele>1504.0071</ele></rtept><rtept lat="46.031525" lon="6.423265"><ele>1504.3636</ele></rtept><rtept lat="46.031597" lon="6.422769"><ele>1505.4932</ele></rtept><rtept lat="46.03183" lon="6.422057"><ele>1507.1437</ele></rtept><rtept lat="46.03193" lon="6.421986"><ele>1507.2231</ele></rtept><rtept lat="46.03184" lon="6.421423"><ele>1507.5092</ele></rtept><rtept lat="46.031822" lon="6.421024"><ele>1507.7072</ele></rtept><rtept lat="46.031757" lon="6.42068"><ele>1507.8833</ele></rtept><rtept lat="46.03174" lon="6.420355"><ele>1508.0448</ele></rtept><rtept lat="46.03194" lon="6.419579"><ele>1508.9574</ele></rtept><rtept lat="46.032" lon="6.419224"><ele>1510.7601</ele></rtept><rtept lat="46.03212" lon="6.418927"><ele>1512.4556</ele></rtept><rtept lat="46.03219" lon="6.418664"><ele>1513.8379</ele></rtept><rtept lat="46.032246" lon="6.418553"><ele>1514.519</ele></rtept><rtept lat="46.03253" lon="6.417909"><ele>1518.2987</ele></rtept><rtept lat="46.03279" lon="6.41762"><ele>1520.6383</ele></rtept><rtept lat="46.033165" lon="6.417378"><ele>1529.3135</ele></rtept><rtept lat="46.033764" lon="6.417341"><ele>1544.0336</ele></rtept><rtept lat="46.035034" lon="6.417453"><ele>1575.8558</ele></rtept><rtept lat="46.03522" lon="6.417308"><ele>1581.3704</ele></rtept><rtept lat="46.035366" lon="6.417099"><ele>1586.719</ele></rtept><rtept lat="46.035603" lon="6.416901"><ele>1593.8177</ele></rtept><rtept lat="46.035828" lon="6.416777"><ele>1600.1481</ele></rtept><rtept lat="46.036163" lon="6.416659"><ele>1609.1405</ele></rtept><rtept lat="46.036213" lon="6.416611"><ele>1610.6855</ele></rtept><rtept lat="46.036564" lon="6.416702"><ele>1614.2173</ele></rtept><rtept lat="46.036793" lon="6.416914"><ele>1616.0549</ele></rtept><rtept lat="46.03688" lon="6.417059"><ele>1616.9722</ele></rtept><rtept lat="46.03709" lon="6.417571"><ele>1619.7697</ele></rtept><rtept lat="46.03717" lon="6.417845"><ele>1621.1688</ele></rtept><rtept lat="46.037228" lon="6.417952"><ele>1621.8132</ele></rtept><rtept lat="46.037548" lon="6.418349"><ele>1624.681</ele></rtept><rtept lat="46.037907" lon="6.419041"><ele>1628.7383</ele></rtept><rtept lat="46.03799" lon="6.419092"><ele>1629.3556</ele></rtept><rtept lat="46.03818" lon="6.419135"><ele>1630.6782</ele></rtept><rtept lat="46.03836" lon="6.419119"><ele>1631.8724</ele></rtept><rtept lat="46.038418" lon="6.419178"><ele>1632.3589</ele></rtept><rtept lat="46.03848" lon="6.419363"><ele>1633.3246</ele></rtept><rtept lat="46.038506" lon="6.419515"><ele>1634.0575</ele></rtept><rtept lat="46.038654" lon="6.419365"><ele>1635.2941</ele></rtept><rtept lat="46.038746" lon="6.419359"><ele>1635.9109</ele></rtept><rtept lat="46.038803" lon="6.419307"><ele>1636.3851</ele></rtept><rtept lat="46.03887" lon="6.419298"><ele>1637.6555</ele></rtept><rtept lat="46.03891" lon="6.419179"><ele>1640.1592</ele></rtept><rtept lat="46.03908" lon="6.419015"><ele>1645.8616</ele></rtept><rtept lat="46.039097" lon="6.418945"><ele>1647.2701</ele></rtept><rtept lat="46.039177" lon="6.418918"><ele>1649.5326</ele></rtept><rtept lat="46.039185" lon="6.418859"><ele>1650.6722</ele></rtept><rtept lat="46.039394" lon="6.418765"><ele>1656.7009</ele></rtept><rtept lat="46.039497" lon="6.418653"><ele>1660.2543</ele></rtept><rtept lat="46.03958" lon="6.41846"><ele>1664.6083</ele></rtept><rtept lat="46.0398" lon="6.418238"><ele>1671.9366</ele></rtept><rtept lat="46.039864" lon="6.418044"><ele>1676.066</ele></rtept><rtept lat="46.03995" lon="6.41797"><ele>1678.8479</ele></rtept><rtept lat="46.040016" lon="6.417993"><ele>1680.7175</ele></rtept><rtept lat="46.040047" lon="6.417938"><ele>1682.0717</ele></rtept><rtept lat="46.04013" lon="6.417959"><ele>1684.365</ele></rtept><rtept lat="46.040314" lon="6.417623"><ele>1688.8046</ele></rtept><rtept lat="46.040524" lon="6.417523"><ele>1691.3872</ele></rtept><rtept lat="46.040638" lon="6.417274"><ele>1693.7716</ele></rtept><rtept lat="46.04068" lon="6.417271"><ele>1694.2584</ele></rtept><rtept lat="46.040733" lon="6.417086"><ele>1695.8712</ele></rtept><rtept lat="46.040794" lon="6.417052"><ele>1696.6393</ele></rtept><rtept lat="46.04084" lon="6.416882"><ele>1698.1014</ele></rtept><rtept lat="46.04094" lon="6.416778"><ele>1699.5293</ele></rtept><rtept lat="46.04098" lon="6.416772"><ele>1699.9949</ele></rtept><rtept lat="46.041183" lon="6.416506"><ele>1703.1633</ele></rtept><rtept lat="46.04123" lon="6.416356"><ele>1704.4955</ele></rtept><rtept lat="46.041313" lon="6.416262"><ele>1705.7087</ele></rtept><rtept lat="46.041515" lon="6.416199"><ele>1703.7147</ele></rtept><rtept lat="46.0418" lon="6.415816"><ele>1691.8038</ele></rtept><rtept lat="46.042" lon="6.415729"><ele>1685.4364</ele></rtept><rtept lat="46.04211" lon="6.415395"><ele>1677.5795</ele></rtept><rtept lat="46.042107" lon="6.415333"><ele>1676.2587</ele></rtept><rtept lat="46.042175" lon="6.415269"><ele>1673.7717</ele></rtept><rtept lat="46.04231" lon="6.415061"><ele>1667.7821</ele></rtept><rtept lat="46.042408" lon="6.415038"><ele>1664.6815</ele></rtept><rtept lat="46.04263" lon="6.414715"><ele>1654.9778</ele></rtept><rtept lat="46.04275" lon="6.414616"><ele>1650.7229</ele></rtept><rtept lat="46.042934" lon="6.414272"><ele>1641.5946</ele></rtept><rtept lat="46.04305" lon="6.41413"><ele>1636.9338</ele></rtept><rtept lat="46.043083" lon="6.414012"><ele>1634.232</ele></rtept><rtept lat="46.043293" lon="6.413875"><ele>1627.2089</ele></rtept><rtept lat="46.043358" lon="6.413733"><ele>1623.645</ele></rtept><rtept lat="46.0434" lon="6.413544"><ele>1619.4576</ele></rtept><rtept lat="46.043507" lon="6.4134"><ele>1614.9296</ele></rtept><rtept lat="46.04352" lon="6.413336"><ele>1613.5277</ele></rtept><rtept lat="46.043427" lon="6.412861"><ele>1603.0745</ele></rtept><rtept lat="46.043404" lon="6.412403"><ele>1594.1785</ele></rtept><rtept lat="46.043427" lon="6.412142"><ele>1589.8424</ele></rtept><rtept lat="46.04332" lon="6.411885"><ele>1584.8945</ele></rtept><rtept lat="46.04333" lon="6.410906"><ele>1568.7671</ele></rtept><rtept lat="46.0433" lon="6.410689"><ele>1565.1183</ele></rtept><rtept lat="46.04322" lon="6.410407"><ele>1560.101</ele></rtept><rtept lat="46.043198" lon="6.410144"><ele>1555.7291</ele></rtept><rtept lat="46.043144" lon="6.41001"><ele>1553.375</ele></rtept><rtept lat="46.04316" lon="6.40982"><ele>1550.6996</ele></rtept><rtept lat="46.04306" lon="6.409501"><ele>1545.8108</ele></rtept><rtept lat="46.043068" lon="6.409251"><ele>1542.3046</ele></rtept><rtept lat="46.042984" lon="6.408822"><ele>1536.058</ele></rtept><rtept lat="46.04301" lon="6.408465"><ele>1531.0276</ele></rtept><rtept lat="46.042965" lon="6.408092"><ele>1525.7255</ele></rtept><rtept lat="46.04302" lon="6.407819"><ele>1521.7583</ele></rtept><rtept lat="46.042988" lon="6.407709"><ele>1520.1163</ele></rtept><rtept lat="46.042873" lon="6.407647"><ele>1517.6204</ele></rtept><rtept lat="46.042873" lon="6.407599"><ele>1516.886</ele></rtept><rtept lat="46.042934" lon="6.407532"><ele>1515.1808</ele></rtept><rtept lat="46.043167" lon="6.407494"><ele>1510.0217</ele></rtept><rtept lat="46.04332" lon="6.407502"><ele>1506.7192</ele></rtept><rtept lat="46.043606" lon="6.407293"><ele>1499.644</ele></rtept><rtept lat="46.043755" lon="6.407298"><ele>1496.365</ele></rtept><rtept lat="46.04379" lon="6.407344"><ele>1495.3226</ele></rtept><rtept lat="46.043728" lon="6.407588"><ele>1491.347</ele></rtept><rtept lat="46.043797" lon="6.407749"><ele>1488.4574</ele></rtept><rtept lat="46.04381" lon="6.40791"><ele>1485.9705</ele></rtept><rtept lat="46.04399" lon="6.408232"><ele>1479.6842</ele></rtept><rtept lat="46.044155" lon="6.408226"><ele>1475.3254</ele></rtept><rtept lat="46.044216" lon="6.408277"><ele>1473.2661</ele></rtept><rtept lat="46.044186" lon="6.408465"><ele>1469.4039</ele></rtept><rtept lat="46.044193" lon="6.408615"><ele>1466.3896</ele></rtept><rtept lat="46.044273" lon="6.408847"><ele>1461.241</ele></rtept><rtept lat="46.044468" lon="6.409079"><ele>1453.9463</ele></rtept><rtept lat="46.04467" lon="6.409232"><ele>1447.338</ele></rtept><rtept lat="46.044983" lon="6.409286"><ele>1438.2451</ele></rtept><rtept lat="46.04501" lon="6.409149"><ele>1435.4016</ele></rtept><rtept lat="46.044823" lon="6.408699"><ele>1424.4933</ele></rtept><rtept lat="46.04483" lon="6.408511"><ele>1419.7758</ele></rtept><rtept lat="46.04481" lon="6.408355"><ele>1415.8107</ele></rtept><rtept lat="46.044918" lon="6.408216"><ele>1410.6411</ele></rtept><rtept lat="46.04516" lon="6.408243"><ele>1401.9226</ele></rtept><rtept lat="46.04518" lon="6.408163"><ele>1399.7548</ele></rtept><rtept lat="46.04506" lon="6.407776"><ele>1389.0841</ele></rtept><rtept lat="46.045055" lon="6.407529"><ele>1382.9003</ele></rtept><rtept lat="46.045013" lon="6.407167"><ele>1373.7062</ele></rtept><rtept lat="46.045036" lon="6.40695"><ele>1368.2212</ele></rtept><rtept lat="46.04497" lon="6.406722"><ele>1362.0507</ele></rtept><rtept lat="46.04502" lon="6.406444"><ele>1353.9058</ele></rtept><rtept lat="46.045" lon="6.406269"><ele>1348.8475</ele></rtept><rtept lat="46.044933" lon="6.40611"><ele>1343.5574</ele></rtept><rtept lat="46.044933" lon="6.406011"><ele>1340.7417</ele></rtept><rtept lat="46.045033" lon="6.405858"><ele>1334.8206</ele></rtept><rtept lat="46.04502" lon="6.405694"><ele>1330.1417</ele></rtept><rtept lat="46.045135" lon="6.405471"><ele>1322.3131</ele></rtept><rtept lat="46.045296" lon="6.405332"><ele>1314.587</ele></rtept><rtept lat="46.045506" lon="6.4053"><ele>1306.0157</ele></rtept><rtept lat="46.046055" lon="6.405339"><ele>1284.727</ele></rtept><rtept lat="46.0462" lon="6.405324"><ele>1280.5631</ele></rtept><rtept lat="46.046364" lon="6.40519"><ele>1275.113</ele></rtept><rtept lat="46.04657" lon="6.405166"><ele>1269.0819</ele></rtept><rtept lat="46.046677" lon="6.405161"><ele>1265.9438</ele></rtept><rtept lat="46.047043" lon="6.405276"><ele>1255.0931</ele></rtept><rtept lat="46.047108" lon="6.405354"><ele>1252.6365</ele></rtept><rtept lat="46.047256" lon="6.405786"><ele>1242.9128</ele></rtept><rtept lat="46.04729" lon="6.40607"><ele>1237.1088</ele></rtept><rtept lat="46.0474" lon="6.406357"><ele>1231.7212</ele></rtept><rtept lat="46.04761" lon="6.406657"><ele>1225.184</ele></rtept><rtept lat="46.047802" lon="6.406789"><ele>1220.5608</ele></rtept><rtept lat="46.048134" lon="6.407197"><ele>1210.9147</ele></rtept><rtept lat="46.048275" lon="6.407583"><ele>1204.2223</ele></rtept><rtept lat="46.048275" lon="6.407695"><ele>1202.5033</ele></rtept><rtept lat="46.04821" lon="6.407872"><ele>1199.41</ele></rtept><rtept lat="46.048206" lon="6.407947"><ele>1198.256</ele></rtept><rtept lat="46.048374" lon="6.408277"><ele>1191.2982</ele></rtept><rtept lat="46.04857" lon="6.408387"><ele>1185.8466</ele></rtept><rtept lat="46.04879" lon="6.408741"><ele>1177.3367</ele></rtept><rtept lat="46.048927" lon="6.408768"><ele>1173.7942</ele></rtept><rtept lat="46.04907" lon="6.408886"><ele>1169.542</ele></rtept><rtept lat="46.04897" lon="6.409109"><ele>1164.8011</ele></rtept><rtept lat="46.048996" lon="6.409213"><ele>1162.8301</ele></rtept><rtept lat="46.049053" lon="6.409315"><ele>1160.4521</ele></rtept><rtept lat="46.04948" lon="6.409401"><ele>1149.3087</ele></rtept><rtept lat="46.04964" lon="6.409782"><ele>1141.5577</ele></rtept><rtept lat="46.049675" lon="6.410174"><ele>1134.6373</ele></rtept><rtept lat="46.050247" lon="6.411256"><ele>1110.8599</ele></rtept><rtept lat="46.050346" lon="6.411265"><ele>1108.3849</ele></rtept><rtept lat="46.050644" lon="6.412087"><ele>1096.382</ele></rtept><rtept lat="46.050667" lon="6.412205"><ele>1094.9897</ele></rtept><rtept lat="46.05076" lon="6.412292"><ele>1093.183</ele></rtept><rtept lat="46.05084" lon="6.412791"><ele>1087.3512</ele></rtept><rtept lat="46.050804" lon="6.413092"><ele>1083.884</ele></rtept><rtept lat="46.050762" lon="6.413192"><ele>1082.526</ele></rtept><rtept lat="46.050774" lon="6.413274"><ele>1081.5676</ele></rtept><rtept lat="46.05102" lon="6.413553"><ele>1076.402</ele></rtept><rtept lat="46.051113" lon="6.413796"><ele>1072.9784</ele></rtept><rtept lat="46.051174" lon="6.414036"><ele>1069.553</ele></rtept><rtept lat="46.05125" lon="6.41445"><ele>1063.8026</ele></rtept><rtept lat="46.05125" lon="6.414802"><ele>1059.0759</ele></rtept><rtept lat="46.05129" lon="6.415177"><ele>1053.987</ele></rtept><rtept lat="46.05143" lon="6.415548"><ele>1048.2886</ele></rtept><rtept lat="46.051464" lon="6.415882"><ele>1043.7611</ele></rtept><rtept lat="46.0515" lon="6.415973"><ele>1042.3641</ele></rtept><rtept lat="46.051716" lon="6.416069"><ele>1037.2207</ele></rtept><rtept lat="46.051895" lon="6.416293"><ele>1030.7975</ele></rtept><rtept lat="46.051994" lon="6.416518"><ele>1025.7911</ele></rtept><rtept lat="46.052208" lon="6.416714"><ele>1018.9874</ele></rtept><rtept lat="46.052143" lon="6.416829"><ele>1016.1821</ele></rtept><rtept lat="46.052372" lon="6.416999"><ele>1009.1992</ele></rtept><rtept lat="46.052414" lon="6.417288"><ele>1003.6882</ele></rtept><rtept lat="46.05251" lon="6.417347"><ele>1000.9032</ele></rtept><rtept lat="46.052628" lon="6.417554"><ele>995.8813</ele></rtept><rtept lat="46.052723" lon="6.417615"><ele>993.08136</ele></rtept><rtept lat="46.052742" lon="6.417663"><ele>992.03534</ele></rtept><rtept lat="46.052948" lon="6.417858"><ele>987.0128</ele></rtept><rtept lat="46.05304" lon="6.41787"><ele>985.153</ele></rtept><rtept lat="46.05312" lon="6.417975"><ele>983.02686</ele></rtept><rtept lat="46.053207" lon="6.418026"><ele>981.1191</ele></rtept><rtept lat="46.05334" lon="6.419005"><ele>967.32935</ele></rtept><rtept lat="46.053417" lon="6.419419"><ele>961.3995</ele></rtept><rtept lat="46.05359" lon="6.419668"><ele>956.5851</ele></rtept><rtept lat="46.053562" lon="6.420003"><ele>953.1948</ele></rtept><rtept lat="46.053574" lon="6.420303"><ele>950.4333</ele></rtept><rtept lat="46.05363" lon="6.420726"><ele>946.4697</ele></rtept><rtept lat="46.0537" lon="6.420824"><ele>945.2052</ele></rtept><rtept lat="46.053753" lon="6.420804"><ele>944.4795</ele></rtept><rtept lat="46.05382" lon="6.420502"><ele>941.54846</ele></rtept><rtept lat="46.053967" lon="6.4203"><ele>938.8865</ele></rtept><rtept lat="46.054054" lon="6.419818"><ele>934.3117</ele></rtept><rtept lat="46.0541" lon="6.419713"><ele>933.15594</ele></rtept><rtept lat="46.05416" lon="6.419652"><ele>932.1833</ele></rtept><rtept lat="46.05451" lon="6.41954"><ele>927.2689</ele></rtept><rtept lat="46.054672" lon="6.419447"><ele>924.80054</ele></rtept><rtept lat="46.054783" lon="6.419434"><ele>923.2848</ele></rtept><rtept lat="46.054844" lon="6.41949"><ele>922.29407</ele></rtept><rtept lat="46.054886" lon="6.419659"><ele>920.55804</ele></rtept><rtept lat="46.054874" lon="6.419791"><ele>919.2777</ele></rtept><rtept lat="46.054813" lon="6.419971"><ele>917.35114</ele></rtept><rtept lat="46.055176" lon="6.420502"><ele>910.2019</ele></rtept><rtept lat="46.055367" lon="6.420524"><ele>907.5188</ele></rtept><rtept lat="46.05561" lon="6.420649"><ele>904.597</ele></rtept><rtept lat="46.056015" lon="6.420292"><ele>899.38055</ele></rtept><rtept lat="46.056442" lon="6.419652"><ele>892.64294</ele></rtept><rtept lat="46.056705" lon="6.419516"><ele>889.58386</ele></rtept><rtept lat="46.056976" lon="6.419538"><ele>885.91565</ele></rtept><rtept lat="46.05722" lon="6.419429"><ele>880.1659</ele></rtept><rtept lat="46.057587" lon="6.419121"><ele>870.5904</ele></rtept><rtept lat="46.057728" lon="6.419217"><ele>867.02625</ele></rtept><rtept lat="46.05804" lon="6.418093"><ele>848.0387</ele></rtept><rtept lat="46.058376" lon="6.418378"><ele>834.67645</ele></rtept><rtept lat="46.058624" lon="6.418588"><ele>824.2382</ele></rtept><rtept lat="46.058662" lon="6.418182"><ele>813.9004</ele></rtept><rtept lat="46.05887" lon="6.418302"><ele>805.81305</ele></rtept><rtept lat="46.05887" lon="6.417907"><ele>795.8365</ele></rtept><rtept lat="46.058987" lon="6.417893"><ele>791.41815</ele></rtept><rtept lat="46.059105" lon="6.417133"><ele>769.0615</ele></rtept><rtept lat="46.05924" lon="6.417078"><ele>762.5379</ele></rtept><rtept lat="46.05912" lon="6.416762"><ele>750.83405</ele></rtept><rtept lat="46.0594" lon="6.416782"><ele>737.70776</ele></rtept><rtept lat="46.059364" lon="6.416497"><ele>728.29584</ele></rtept><rtept lat="46.0595" lon="6.416507"><ele>721.82623</ele></rtept><rtept lat="46.059433" lon="6.416119"><ele>708.8126</ele></rtept><rtept lat="46.059685" lon="6.416098"><ele>697.0405</ele></rtept><rtept lat="46.059624" lon="6.41566"><ele>682.3791</ele></rtept><rtept lat="46.059856" lon="6.415801"><ele>670.4623</ele></rtept><rtept lat="46.059994" lon="6.414963"><ele>642.1764</ele></rtept><rtept lat="46.05995" lon="6.414795"><ele>636.34326</ele></rtept><rtept lat="46.06015" lon="6.414654"><ele>625.9752</ele></rtept><rtept lat="46.06" lon="6.414394"><ele>614.9608</ele></rtept><rtept lat="46.060184" lon="6.414275"><ele>606.60846</ele></rtept><rtept lat="46.060204" lon="6.414059"><ele>600.7944</ele></rtept><rtept lat="46.06034" lon="6.414037"><ele>595.5618</ele></rtept><rtept lat="46.060257" lon="6.413609"><ele>583.68524</ele></rtept><rtept lat="46.060383" lon="6.413543"><ele>578.558</ele></rtept><rtept lat="46.060333" lon="6.41278"><ele>558.0832</ele></rtept><rtept lat="46.060467" lon="6.412617"><ele>551.3296</ele></rtept><rtept lat="46.06036" lon="6.412392"><ele>544.03986</ele></rtept><rtept lat="46.060616" lon="6.412295"><ele>535.0878</ele></rtept><rtept lat="46.060802" lon="6.411643"><ele>518.9946</ele></rtept><rtept lat="46.06113" lon="6.410779"><ele>496.54504</ele></rtept><rtept lat="46.061363" lon="6.410383"><ele>484.68036</ele></rtept><rtept lat="46.061398" lon="6.410333"><ele>483.28055</ele></rtept><rtept lat="46.06158" lon="6.410048"><ele>479.34476</ele></rtept><rtept lat="46.06247" lon="6.408273"><ele>457.2382</ele></rtept><rtept lat="46.0629" lon="6.407969"><ele>455.88702</ele></rtept><rtept lat="46.063522" lon="6.407721"><ele>454.105</ele></rtept><rtept lat="46.063522" lon="6.407154"><ele>453.01868</ele></rtept><rtept lat="46.063515" lon="6.406814"><ele>452.36688</ele></rtept><rtept lat="46.06343" lon="6.405839"><ele>452.18265</ele></rtept><rtept lat="46.06338" lon="6.405384"><ele>452.15115</ele></rtept><rtept lat="46.063316" lon="6.405066"><ele>452.12848</ele></rtept><rtept lat="46.063324" lon="6.404692"><ele>452.1029</ele></rtept><rtept lat="46.063362" lon="6.404613"><ele>452.09637</ele></rtept><rtept lat="46.064777" lon="6.404463"><ele>452.17154</ele></rtept><rtept lat="46.064842" lon="6.403207"><ele>452.34747</ele></rtept><rtept lat="46.065037" lon="6.401053"><ele>453.18076</ele></rtept><rtept lat="46.064938" lon="6.400557"><ele>453.17053</ele></rtept><rtept lat="46.06497" lon="6.400343"><ele>453.13953</ele></rtept><rtept lat="46.06524" lon="6.400588"><ele>453.07434</ele></rtept><rtept lat="46.06545" lon="6.400757"><ele>453.02536</ele></rtept><rtept lat="46.06559" lon="6.400883"><ele>452.9911</ele></rtept><rtept lat="46.0658" lon="6.40116"><ele>452.93304</ele></rtept><rtept lat="46.066116" lon="6.401918"><ele>452.5804</ele></rtept><rtept lat="46.066154" lon="6.40201"><ele>452.49957</ele></rtept><rtept lat="46.066185" lon="6.402091"><ele>452.42877</ele></rtept><rtept lat="46.06656" lon="6.403064"><ele>451.57748</ele></rtept><rtept lat="46.066917" lon="6.40399"><ele>450.79794</ele></rtept><rtept lat="46.06732" lon="6.405017"><ele>450.16043</ele></rtept><rtept lat="46.067455" lon="6.405226"><ele>450.00748</ele></rtept><rtept lat="46.067566" lon="6.405373"><ele>449.89145</ele></rtept><rtept lat="46.067734" lon="6.405655"><ele>449.6905</ele></rtept><rtept lat="46.067963" lon="6.406052"><ele>449.33234</ele></rtept><rtept lat="46.068085" lon="6.406178"><ele>449.06393</ele></rtept><rtept lat="46.068195" lon="6.406246"><ele>448.8533</ele></rtept><rtept lat="46.068295" lon="6.406296"><ele>448.6687</ele></rtept><rtept lat="46.068863" lon="6.406384"><ele>447.66522</ele></rtept><rtept lat="46.06914" lon="6.406392"><ele>447.17065</ele></rtept><rtept lat="46.06947" lon="6.4064"><ele>446.59338</ele></rtept><rtept lat="46.069515" lon="6.406402"><ele>446.51242</ele></rtept><rtept lat="46.070656" lon="6.406414"><ele>446.2262</ele></rtept><rtept lat="46.071064" lon="6.406405"><ele>446.1922</ele></rtept><rtept lat="46.071404" lon="6.406382"><ele>446.1638</ele></rtept><rtept lat="46.071606" lon="6.406367"><ele>446.15454</ele></rtept><rtept lat="46.071884" lon="6.406346"><ele>446.14334</ele></rtept><rtept lat="46.072197" lon="6.406322"><ele>446.13074</ele></rtept><rtept lat="46.07256" lon="6.406301"><ele>446.1161</ele></rtept><rtept lat="46.072727" lon="6.406332"><ele>446.10922</ele></rtept><rtept lat="46.07274" lon="6.406186"><ele>446.10513</ele></rtept><rtept lat="46.072815" lon="6.40581"><ele>446.09415</ele></rtept><rtept lat="46.073154" lon="6.404966"><ele>446.04935</ele></rtept><rtept lat="46.073563" lon="6.404063"><ele>445.99564</ele></rtept><rtept lat="46.073902" lon="6.403328"><ele>445.9383</ele></rtept><rtept lat="46.073914" lon="6.403238"><ele>445.92636</ele></rtept><rtept lat="46.073963" lon="6.403268"><ele>445.91638</ele></rtept><rtept lat="46.074047" lon="6.403364"><ele>445.89645</ele></rtept><rtept lat="46.074066" lon="6.403396"><ele>445.89072</ele></rtept><rtept lat="46.07416" lon="6.403328"><ele>445.871</ele></rtept><rtept lat="46.074303" lon="6.403321"><ele>445.84494</ele></rtept><rtept lat="46.07432" lon="6.403283"><ele>445.8387</ele></rtept><rtept lat="46.074463" lon="6.403396"><ele>445.80817</ele></rtept><rtept lat="46.074585" lon="6.403645"><ele>445.76862</ele></rtept><rtept lat="46.074917" lon="6.404325"><ele>445.6605</ele></rtept><rtept lat="46.07505" lon="6.404605"><ele>445.5762</ele></rtept><rtept lat="46.07514" lon="6.404788"><ele>445.36728</ele></rtept><rtept lat="46.0752" lon="6.404985"><ele>445.16818</ele></rtept><rtept lat="46.075275" lon="6.404981"><ele>445.07047</ele></rtept><rtept lat="46.075436" lon="6.405334"><ele>444.67697</ele></rtept><rtept lat="46.075577" lon="6.405591"><ele>444.3746</ele></rtept><rtept lat="46.07566" lon="6.405754"><ele>444.18457</ele></rtept><rtept lat="46.076187" lon="6.406696"><ele>443.2426</ele></rtept><rtept lat="46.076145" lon="6.406743"><ele>443.25455</ele></rtept><rtept lat="46.07611" lon="6.40678"><ele>443.26425</ele></rtept><rtept lat="46.076103" lon="6.406858"><ele>443.27643</ele></rtept><rtept lat="46.07603" lon="6.40703"><ele>443.30777</ele></rtept><rtept lat="46.07595" lon="6.407296"><ele>443.3531</ele></rtept><rtept lat="46.075882" lon="6.407723"><ele>443.4211</ele></rtept><rtept lat="46.07579" lon="6.408219"><ele>443.5009</ele></rtept><rtept lat="46.07579" lon="6.408727"><ele>443.57983</ele></rtept><rtept lat="46.075832" lon="6.408866"><ele>443.60367</ele></rtept><rtept lat="46.07576" lon="6.408913"><ele>443.6304</ele></rtept><rtept lat="46.075687" lon="6.40902"><ele>443.75653</ele></rtept><rtept lat="46.075626" lon="6.409426"><ele>444.10275</ele></rtept><rtept lat="46.07558" lon="6.410036"><ele>444.61478</ele></rtept><rtept lat="46.07562" lon="6.410041"><ele>444.6583</ele></rtept><rtept lat="46.07569" lon="6.41024"><ele>444.84735</ele></rtept><rtept lat="46.076027" lon="6.411219"><ele>445.75797</ele></rtept><rtept lat="46.076366" lon="6.412212"><ele>446.15652</ele></rtept><rtept lat="46.076393" lon="6.412295"><ele>446.18872</ele></rtept><rtept lat="46.076454" lon="6.412473"><ele>446.25732</ele></rtept><rtept lat="46.076508" lon="6.412625"><ele>446.31604</ele></rtept><rtept lat="46.076565" lon="6.412798"><ele>446.38287</ele></rtept><rtept lat="46.076534" lon="6.412795"><ele>446.3979</ele></rtept><rtept lat="46.076572" lon="6.412864"><ele>446.42874</ele></rtept><rtept lat="46.07692" lon="6.413933"><ele>446.82355</ele></rtept><rtept lat="46.076782" lon="6.414031"><ele>446.8923</ele></rtept><rtept lat="46.076756" lon="6.414091"><ele>446.9154</ele></rtept><rtept lat="46.076767" lon="6.414201"><ele>446.95053</ele></rtept><rtept lat="46.077038" lon="6.41472"><ele>447.15585</ele></rtept><rtept lat="46.07744" lon="6.415488"><ele>447.45926</ele></rtept><rtept lat="46.07771" lon="6.415831"><ele>447.50098</ele></rtept><rtept lat="46.077763" lon="6.415831"><ele>447.50098</ele></rtept><rtept lat="46.07781" lon="6.415851"><ele>447.50098</ele></rtept><rtept lat="46.077805" lon="6.415967"><ele>447.50098</ele></rtept><rtept lat="46.07782" lon="6.416068"><ele>447.50098</ele></rtept><rtept lat="46.077847" lon="6.416142"><ele>447.50098</ele></rtept><rtept lat="46.077904" lon="6.41631"><ele>447.50098</ele></rtept><rtept lat="46.0779" lon="6.416316"><ele>447.50098</ele></rtept><rtept lat="46.07793" lon="6.416406"><ele>447.50098</ele></rtept><rtept lat="46.077854" lon="6.416474"><ele>447.50098</ele></rtept><rtept lat="46.077847" lon="6.416542"><ele>447.50098</ele></rtept><rtept lat="46.07782" lon="6.416549"><ele>447.50098</ele></rtept><rtept lat="46.077827" lon="6.416801"><ele>447.50098</ele></rtept><rtept lat="46.077797" lon="6.416678"><ele>447.50098</ele></rtept><rtept lat="46.07774" lon="6.416725"><ele>447.50098</ele></rtept><rtept lat="46.07761" lon="6.416352"><ele>447.50098</ele></rtept><rtept lat="46.07746" lon="6.416005"><ele>447.50098</ele></rtept><rtept lat="46.07745" lon="6.416016"><ele>447.50098</ele></rtept><rtept lat="46.077442" lon="6.416024"><ele>447.50098</ele></rtept><rtept lat="46.077644" lon="6.416545"><ele>447.50098</ele></rtept><rtept lat="46.07772" lon="6.416789"><ele>447.50098</ele></rtept></rte></gpx>